0 COSMOS 2166
1 21780U 91077B   13281.07548693  .00000023  00000-0  68615-4 0  8915
2 21780 082.5987 321.4981 0003368 220.0805 154.2807 12.63334651 10129
0 COSMOS 2166
1 21780U 91077B   13283.22605811  .00000038  00000-0  14995-3 0  8928
2 21780 082.5984 320.1269 0003461 215.0307 215.2550 12.63334383 10390
0 COSMOS 2166
1 21780U 91077B   13285.69471895  .00000053  00000-0  23095-3 0  8933
2 21780 082.5977 318.5530 0003561 209.0962 283.0631 12.63334538 10705
0 COSMOS 2166
1 21780U 91077B   13287.75086572  .00000038  00000-0  15062-3 0  8945
2 21780 082.5973 317.2418 0003637 204.6263 274.2279 12.63334784 10962
0 COSMOS 2166
1 21780U 91077B   13289.81044525  .00000019  00000-0  43373-4 0  8953
2 21780 082.5970 315.9282 0003726 199.5633 281.5920 12.63335023 11226
0 COSMOS 2166
1 21780U 91077B   13292.17370134  .00000005  00000-0 -30607-4 0  8967
2 21780 082.5971 314.4208 0003834 193.7632 230.1276 12.63335084 11528
0 COSMOS 2166
1 21780U 91077B   13294.49340228  .00000030  00000-0  10423-3 0  8976
2 21780 082.5972 312.9412 0003916 188.8466 339.7916 12.63334974 11816
